{
  "type": "FeatureCollection",
  "features": [
    {
      "type": "Feature",
      "properties": {
        "norad_id": 36696,
        "name": "FENGYUN 1C DEB",
        "group": "fengyun-1c-debris",
        "lat": -22.858443093050724,
        "lon": -1.3601945941223537,
        "alt_km": 750.2447376450127,
        "timestamp": "2025-12-11T20:41:15.369385+00:00",
        "meta_object_name": "FENGYUN 1C DEB",
        "meta_object_id": "1999-025DZS",
        "meta_epoch": "2025-12-09T07:03:23.734944",
        "meta_mean_motion": 14.39130794,
        "meta_eccentricity": 0.0023,
        "meta_inclination": 98.9925,
        "meta_ra_of_asc_node": 352.121,
        "meta_arg_of_pericenter": 339.2487,
        "meta_mean_anomaly": 20.7763,
        "meta_ephemeris_type": 0,
        "meta_classification_type": "U",
        "meta_norad_cat_id": 36696,
        "meta_element_set_no": 999,
        "meta_rev_at_epoch": 64346,
        "meta_bstar": 0.0028391,
        "meta_mean_motion_dot": 8.775e-05,
        "meta_mean_motion_ddot": 0,
        "tle_line1": "1 36696U 99025DZS 25343.29402471  .00008775  00000+0  28391-2 0  9992",
        "tle_line2": "2 36696  98.9925 352.1210 0023000 339.2487  20.7763 14.39130794643468"
      },
      "geometry": {
        "type": "Point",
        "coordinates": [
          -1.3601945941223537,
          -22.858443093050724
        ]
      }
    },
    {
      "type": "Feature",
      "properties": {
        "norad_id": 36699,
        "name": "FENGYUN 1C DEB",
        "group": "fengyun-1c-debris",
        "lat": 56.94149684712273,
        "lon": -32.991600454029964,
        "alt_km": 786.7637449564463,
        "timestamp": "2025-12-11T20:41:15.369395+00:00",
        "meta_object_name": "FENGYUN 1C DEB",
        "meta_object_id": "1999-025DZV",
        "meta_epoch": "2025-12-11T05:14:28.287744",
        "meta_mean_motion": 14.24290495,
        "meta_eccentricity": 0.00945804,
        "meta_inclination": 98.5589,
        "meta_ra_of_asc_node": 339.76,
        "meta_arg_of_pericenter": 134.5119,
        "meta_mean_anomaly": 226.3839,
        "meta_ephemeris_type": 0,
        "meta_classification_type": "U",
        "meta_norad_cat_id": 36699,
        "meta_element_set_no": 999,
        "meta_rev_at_epoch": 73305,
        "meta_bstar": 0.00032955005,
        "meta_mean_motion_dot": 7.55e-06,
        "meta_mean_motion_ddot": 0,
        "tle_line1": "1 36699U 99025DZV 25345.21838296  .00000755  00000+0  32955-3 0  9999",
        "tle_line2": "2 36699  98.5589 339.7600 0094580 134.5119 226.3839 14.24290495733058"
      },
      "geometry": {
        "type": "Point",
        "coordinates": [
          -32.991600454029964,
          56.94149684712273
        ]
      }
    },
    {
      "type": "Feature",
      "properties": {
        "norad_id": 36701,
        "name": "FENGYUN 1C DEB",
        "group": "fengyun-1c-debris",
        "lat": 0.8510992407237757,
        "lon": 120.10821865063326,
        "alt_km": 947.8864268238485,
        "timestamp": "2025-12-11T20:41:15.369405+00:00",
        "meta_object_name": "FENGYUN 1C DEB",
        "meta_object_id": "1999-025DZX",
        "meta_epoch": "2025-12-09T15:15:38.057760",
        "meta_mean_motion": 13.71305696,
        "meta_eccentricity": 0.0260138,
        "meta_inclination": 102.7439,
        "meta_ra_of_asc_node": 296.9694,
        "meta_arg_of_pericenter": 260.5557,
        "meta_mean_anomaly": 96.6087,
        "meta_ephemeris_type": 0,
        "meta_classification_type": "U",
        "meta_norad_cat_id": 36701,
        "meta_element_set_no": 999,
        "meta_rev_at_epoch": 61096,
        "meta_bstar": 0.0037365,
        "meta_mean_motion_dot": 4.196e-05,
        "meta_mean_motion_ddot": 0,
        "tle_line1": "1 36701U 99025DZX 25343.63585715  .00004196  00000+0  37365-2 0  9994",
        "tle_line2": "2 36701 102.7439 296.9694 0260138 260.5557  96.6087 13.71305696610969"
      },
      "geometry": {
        "type": "Point",
        "coordinates": [
          120.10821865063326,
          0.8510992407237757
        ]
      }
    },
    {
      "type": "Feature",
      "properties": {
        "norad_id": 36707,
        "name": "FENGYUN 1C DEB",
        "group": "fengyun-1c-debris",
        "lat": -31.90345081287358,
        "lon": 37.491541592249575,
        "alt_km": 873.4930150598466,
        "timestamp": "2025-12-11T20:41:15.369415+00:00",
        "meta_object_name": "FENGYUN 1C DEB",
        "meta_object_id": "1999-025EAD",
        "meta_epoch": "2025-12-11T08:58:50.781504",
        "meta_mean_motion": 14.17303343,
        "meta_eccentricity": 0.00499332,
        "meta_inclination": 98.7525,
        "meta_ra_of_asc_node": 31.5079,
        "meta_arg_of_pericenter": 125.6616,
        "meta_mean_anomaly": 234.9222,
        "meta_ephemeris_type": 0,
        "meta_classification_type": "U",
        "meta_norad_cat_id": 36707,
        "meta_element_set_no": 999,
        "meta_rev_at_epoch": 64060,
        "meta_bstar": 0.0012672725,
        "meta_mean_motion_dot": 2.55e-05,
        "meta_mean_motion_ddot": 0,
        "tle_line1": "1 36707U 99025EAD 25345.37419886  .00002550  00000+0  12673-2 0  9995",
        "tle_line2": "2 36707  98.7525  31.5079 0049933 125.6616 234.9222 14.17303343640600"
      },
      "geometry": {
        "type": "Point",
        "coordinates": [
          37.491541592249575,
          -31.90345081287358
        ]
      }
    },
    {
      "type": "Feature",
      "properties": {
        "norad_id": 36710,
        "name": "FENGYUN 1C DEB",
        "group": "fengyun-1c-debris",
        "lat": 45.86013984829478,
        "lon": -128.27444643204856,
        "alt_km": 691.4887815137517,
        "timestamp": "2025-12-11T20:41:15.369426+00:00",
        "meta_object_name": "FENGYUN 1C DEB",
        "meta_object_id": "1999-025EAG",
        "meta_epoch": "2025-12-09T10:05:53.606976",
        "meta_mean_motion": 14.49787027,
        "meta_eccentricity": 0.00678732,
        "meta_inclination": 98.3799,
        "meta_ra_of_asc_node": 40.5617,
        "meta_arg_of_pericenter": 191.5881,
        "meta_mean_anomaly": 168.3755,
        "meta_ephemeris_type": 0,
        "meta_classification_type": "U",
        "meta_norad_cat_id": 36710,
        "meta_element_set_no": 999,
        "meta_rev_at_epoch": 64905,
        "meta_bstar": 0.0022522303,
        "meta_mean_motion_dot": 8.905e-05,
        "meta_mean_motion_ddot": 0,
        "tle_line1": "1 36710U 99025EAG 25343.42075934  .00008905  00000+0  22522-2 0  9999",
        "tle_line2": "2 36710  98.3799  40.5617 0067873 191.5881 168.3755 14.49787027649059"
      },
      "geometry": {
        "type": "Point",
        "coordinates": [
          -128.27444643204856,
          45.86013984829478
        ]
      }
    },
    {
      "type": "Feature",
      "properties": {
        "norad_id": 36711,
        "name": "FENGYUN 1C DEB",
        "group": "fengyun-1c-debris",
        "lat": 29.906500060137958,
        "lon": -1.3884252703826678,
        "alt_km": 820.5373901871908,
        "timestamp": "2025-12-11T20:41:15.369435+00:00",
        "meta_object_name": "FENGYUN 1C DEB",
        "meta_object_id": "1999-025EAH",
        "meta_epoch": "2025-11-29T18:49:32.545344",
        "meta_mean_motion": 14.42080972,
        "meta_eccentricity": 0.01000486,
        "meta_inclination": 100.8061,
        "meta_ra_of_asc_node": 349.6584,
        "meta_arg_of_pericenter": 244.1532,
        "meta_mean_anomaly": 114.9305,
        "meta_ephemeris_type": 0,
        "meta_classification_type": "U",
        "meta_norad_cat_id": 36711,
        "meta_element_set_no": 999,
        "meta_rev_at_epoch": 64124,
        "meta_bstar": 0.0024295961,
        "meta_mean_motion_dot": 8.419e-05,
        "meta_mean_motion_ddot": 0,
        "tle_line1": "1 36711U 99025EAH 25333.78440446  .00008419  00000+0  24296-2 0  9992",
        "tle_line2": "2 36711 100.8061 349.6584 0100048 244.1532 114.9305 14.42080972641246"
      },
      "geometry": {
        "type": "Point",
        "coordinates": [
          -1.3884252703826678,
          29.906500060137958
        ]
      }
    },
    {
      "type": "Feature",
      "properties": {
        "norad_id": 36716,
        "name": "FENGYUN 1C DEB",
        "group": "fengyun-1c-debris",
        "lat": -63.72423143609074,
        "lon": 65.69385697729943,
        "alt_km": 836.1894827793667,
        "timestamp": "2025-12-11T20:41:15.369445+00:00",
        "meta_object_name": "FENGYUN 1C DEB",
        "meta_object_id": "1999-025EAN",
        "meta_epoch": "2025-12-10T12:22:25.648032",
        "meta_mean_motion": 13.88411976,
        "meta_eccentricity": 0.0148045,
        "meta_inclination": 99.2282,
        "meta_ra_of_asc_node": 263.5873,
        "meta_arg_of_pericenter": 234.8718,
        "meta_mean_anomaly": 123.849,
        "meta_ephemeris_type": 0,
        "meta_classification_type": "U",
        "meta_norad_cat_id": 36716,
        "meta_element_set_no": 999,
        "meta_rev_at_epoch": 62900,
        "meta_bstar": 0.00035629,
        "meta_mean_motion_dot": 4.21e-06,
        "meta_mean_motion_ddot": 0,
        "tle_line1": "1 36716U 99025EAN 25344.51557463  .00000421  00000+0  35629-3 0  9996",
        "tle_line2": "2 36716  99.2282 263.5873 0148045 234.8718 123.8490 13.88411976629008"
      },
      "geometry": {
        "type": "Point",
        "coordinates": [
          65.69385697729943,
          -63.72423143609074
        ]
      }
    }
  ]
}